{
    "links": {
        "self": "http://www.neowsapp.com/rest/v1/neo/3405195?api_key=iIulBulltgU6a56xZRHN4H3l9WmuAYTsLGpBGhQ2"
    },
    "id": "3405195",
    "neo_reference_id": "3405195",
    "name": "(2008 EJ9)",
    "designation": "2008 EJ9",
    "nasa_jpl_url": "http://ssd.jpl.nasa.gov/sbdb.cgi?sstr=3405195",
    "absolute_magnitude_h": 21.0,
    "estimated_diameter": {
        "kilometers": {
            "estimated_diameter_min": 0.1677084622,
            "estimated_diameter_max": 0.3750075218
        },
        "meters": {
            "estimated_diameter_min": 167.7084621628,
            "estimated_diameter_max": 375.0075217981
        },
        "miles": {
            "estimated_diameter_min": 0.1042091748,
            "estimated_diameter_max": 0.2330187988
        },
        "feet": {
            "estimated_diameter_min": 550.2246310023,
            "estimated_diameter_max": 1230.3396778159
        }
    },
    "is_potentially_hazardous_asteroid": false,
    "close_approach_data": [
        {
            "close_approach_date": "2008-03-10",
            "close_approach_date_full": "2008-Mar-10 07:10",
            "epoch_date_close_approach": 1205133000000,
            "relative_velocity": {
                "kilometers_per_second": "20.6054672824",
                "kilometers_per_hour": "74179.6822166512",
                "miles_per_hour": "46092.3697640075"
            },
            "miss_distance": {
                "astronomical": "0.3206596454",
                "lunar": "124.7366020606",
                "kilometers": "47969999.946795298",
                "miles": "29807175.7898311924"
            },
            "orbiting_body": "Earth"
        }
    ],
    "orbital_data": {
        "orbit_id": "7",
        "orbit_determination_date": "2017-04-06 09:04:03",
        "first_observation_date": "2008-03-09",
        "last_observation_date": "2008-03-13",
        "data_arc_in_days": 4,
        "observations_used": 36,
        "orbit_uncertainty": "9",
        "minimum_orbit_intersection": ".320027",
        "jupiter_tisserand_invariant": "3.714",
        "epoch_osculation": "2454535.5",
        "eccentricity": ".3029742185381741",
        "semi_major_axis": "1.824409996569575",
        "inclination": "40.19207821716991",
        "ascending_node_longitude": "345.7020935120079",
        "orbital_period": "900.0820311220247",
        "perihelion_distance": "1.271660803565675",
        "perihelion_argument": "212.801241821396",
        "aphelion_distance": "2.377159189573474",
        "perihelion_time": "2454572.825830607261",
        "mean_anomaly": "345.0710284685238",
        "mean_motion": ".3999635450462565",
        "equinox": "J2000",
        "orbit_class": {
            "orbit_class_type": "AMO",
            "orbit_class_description": "Near-Earth asteroid orbits similar to that of 1221 Amor",
            "orbit_class_range": "1.017 AU < q (perihelion) < 1.3 AU"
        }
    },
    "is_sentry_object": false
}